     2.100          NAVIGATION                              RINEX VERSION / TYPE
fic2rin                                 07/07/2016 00:07:15 PGM / RUN BY / DATE
                                                            END OF HEADER
13 16  7  6 11 59 44.0 -.293967314065D-04 -.250111042988D-11  .000000000000D+00
     .250000000000D+02 -.243125000000D+02  .464519349095D-08 -.262727984608D+01
    -.121258199215D-05  .418811023701D-02  .656023621559D-05  .515367398834D+04
     .302384000000D+06  .111758708954D-07 -.709171722615D+00  .651925802231D-07
     .971086047986D+00  .255875000000D+03  .200290112871D+01 -.794211653532D-08
    -.345014371233D-09  .100000000000D+01  .190400000000D+04  .000000000000D+00
     .240000000000D+01  .000000000000D+00 -.111758708954D-07  .250000000000D+02
     .295206000000D+06  .400000000000D+01
15 16  7  6 11 59 44.0 -.318249221891D-03 -.159161572810D-11  .000000000000D+00
     .230000000000D+02 -.190312500000D+02  .568452249746D-08 -.151716035330D+01
    -.118091702461D-05  .818874780089D-02  .485219061375D-05  .515361136246D+04
     .302384000000D+06  .875443220139D-07 -.884032161362D+00 -.102445483208D-06
     .930292062399D+00  .263281250000D+03  .484348542604D+00 -.854535594838D-08
    -.109290266664D-09  .100000000000D+01  .190400000000D+04  .000000000000D+00
     .240000000000D+01  .000000000000D+00 -.107102096081D-07  .230000000000D+02
     .295206000000D+06  .400000000000D+01
 1 16  7  6 12  0  0.0  .259932130575D-04  .125055521494D-11  .000000000000D+00
     .240000000000D+02 -.939062500000D+02  .390516266570D-08 -.283590942703D+01
    -.483728945255D-05  .567182502709D-02  .110901892185D-04  .515365144730D+04
     .302400000000D+06 -.372529029846D-08 -.291126376530D+01  .130385160446D-07
     .965142978399D+00  .168625000000D+03  .487168859944D+00 -.764889003554D-08
     .105004373854D-09  .100000000000D+01  .190400000000D+04  .000000000000D+00
     .240000000000D+01  .000000000000D+00  .512227416039D-08  .240000000000D+02
     .295206000000D+06  .400000000000D+01
 2 16  7  6 12  0  0.0  .579263549298D-03 -.386535248253D-11  .000000000000D+00
     .800000000000D+02 -.109156250000D+03  .428124975981D-08 -.245241206641D+01
    -.557117164135D-05  .157939610071D-01  .114515423775D-04  .515360185242D+04
     .302400000000D+06  .124797224998D-06 -.295762821231D+01 -.117346644402D-06
     .943936402351D+00  .145750000000D+03 -.210369887761D+01 -.766781939546D-08
     .105718689322D-09  .100000000000D+01  .190400000000D+04  .000000000000D+00
     .240000000000D+01  .000000000000D+00 -.200234353542D-07  .800000000000D+02
     .295206000000D+06  .400000000000D+01
 3 16  7  6 12  0  0.0 -.707595609128D-04 -.318323145621D-11  .000000000000D+00
     .390000000000D+02  .309375000000D+02  .456733310490D-08 -.207439514069D+01
     .170618295670D-05  .196653651074D-03  .792555510998D-05  .515366857719D+04
     .302400000000D+06 -.242143869400D-07 -.186995643528D+01 -.242143869400D-07
     .958980926068D+00  .222593750000D+03 -.141543159310D+01 -.804890669784D-08
     .667884962947D-09  .100000000000D+01  .190400000000D+04  .000000000000D+00
     .240000000000D+01  .000000000000D+00  .186264514923D-08  .390000000000D+02
     .295206000000D+06  .400000000000D+01
 4 16  7  6 12  0  0.0 -.258737243712D-03 -.341060513165D-12  .000000000000D+00
     .440000000000D+02  .113812500000D+03  .551237246958D-08  .357307888108D+00
     .613927841187D-05  .848418055102D-02  .542029738426D-05  .515365892601D+04
     .302400000000D+06 -.558793544769D-08  .129462829465D+01  .279396772385D-07
     .983070256799D+00  .283375000000D+03  .901444605243D+00 -.823141430002D-08
     .185722021782D-09  .100000000000D+01  .190400000000D+04  .000000000000D+00
     .240000000000D+01  .630000000000D+02 -.195577740669D-07  .440000000000D+02
     .295206000000D+06  .400000000000D+01
 5 16  7  6 12  0  0.0 -.107475556433D-03  .284217094304D-11  .000000000000D+00
     .270000000000D+02  .338125000000D+02  .492699094323D-08  .376212644481D-01
     .189989805222D-05  .457441597246D-02  .805780291557D-05  .515354472733D+04
     .302400000000D+06  .782310962677D-07 -.188240013642D+01  .800937414169D-07
     .946048278205D+00  .215906250000D+03  .455044018638D+00 -.826462996930D-08
     .695028950746D-09  .100000000000D+01  .190400000000D+04  .000000000000D+00
     .240000000000D+01  .000000000000D+00 -.107102096081D-07  .270000000000D+02
     .295206000000D+06  .400000000000D+01
 6 16  7  6 12  0  0.0  .214779749513D-03  .534328137292D-11  .000000000000D+00
     .330000000000D+02 -.852500000000D+02  .404338270883D-08 -.264449829678D+01
    -.447034835815D-05  .359477358870D-03  .113509595394D-04  .515372840309D+04
     .302400000000D+06  .614672899246D-07 -.291968180115D+01 -.726431608200D-07
     .964968105561D+00  .165781250000D+03 -.128669426816D+01 -.772996484121D-08
    -.228580949885D-10  .100000000000D+01  .190400000000D+04  .000000000000D+00
     .240000000000D+01  .000000000000D+00  .419095158577D-08  .330000000000D+02
     .295206000000D+06  .400000000000D+01
 7 16  7  6 12  0  0.0  .443839002401D-03 -.250111042988D-11  .000000000000D+00
     .830000000000D+02  .460000000000D+02  .418874590665D-08  .273349499859D+01
     .240094959736D-05  .971332599875D-02  .117439776659D-04  .515364868164D+04
     .302400000000D+06 -.119209289551D-06  .247353518444D+00 -.987201929092D-07
     .966336204605D+00  .158406250000D+03 -.266625867510D+01 -.759924511049D-08
    -.271797035723D-09  .100000000000D+01  .190400000000D+04  .000000000000D+00
     .240000000000D+01  .000000000000D+00 -.111758708954D-07  .830000000000D+02
     .295206000000D+06  .400000000000D+01
 8 16  7  6 12  0  0.0 -.417255796492D-04 -.147792889038D-11  .000000000000D+00
     .480000000000D+02 -.657187500000D+02  .461054919074D-08  .104591709899D+00
    -.340305268764D-05  .169635424390D-02  .173039734364D-05  .515371407127D+04
     .302400000000D+06  .186264514923D-07  .231143514958D+01 -.596046447754D-07
     .963655417465D+00  .350843750000D+03 -.104482777361D+01 -.839927843509D-08
    -.322513433979D-09  .100000000000D+01  .190400000000D+04  .000000000000D+00
     .240000000000D+01  .000000000000D+00  .465661287308D-08  .480000000000D+02
     .295206000000D+06  .400000000000D+01
10 16  7  6 12  0  0.0 -.601410865784D-04 -.750333128963D-11  .000000000000D+00
     .110000000000D+02  .251562500000D+02  .460519182472D-08  .112186993167D+01
     .124797224998D-05  .159234041348D-02  .843219459057D-05  .515367860413D+04
     .302400000000D+06 -.111758708954D-07 -.187393142509D+01  .167638063431D-07
     .959215892655D+00  .215937500000D+03 -.272526855380D+01 -.798354683249D-08
     .646455498895D-09  .100000000000D+01  .190400000000D+04  .000000000000D+00
     .240000000000D+01  .000000000000D+00  .232830643654D-08  .110000000000D+02
     .295206000000D+06  .400000000000D+01
11 16  7  6 12  0  0.0 -.654876232147D-03 -.136424205266D-11  .000000000000D+00
     .600000000000D+02 -.140250000000D+03  .552915888309D-08  .284864755360D+01
    -.710599124432D-05  .165609187679D-01  .696443021297D-05  .515367663574D+04
     .302400000000D+06  .167638063431D-06  .299230399946D+01 -.372529029846D-07
     .897523967236D+00  .209500000000D+03  .153795799255D+01 -.830034574272D-08
    -.250724729406D-09  .100000000000D+01  .190400000000D+04  .000000000000D+00
     .340000000000D+01  .000000000000D+00 -.121071934700D-07  .600000000000D+02
     .295206000000D+06  .400000000000D+01
12 16  7  6 12  0  0.0  .384611543268D-03  .909494701773D-12  .000000000000D+00
     .380000000000D+02  .118812500000D+03  .399552357245D-08  .214064134075D+01
     .589340925217D-05  .610937725287D-02  .493414700031D-05  .515370354843D+04
     .302400000000D+06 -.100582838058D-06  .132421883812D+01 -.102445483208D-06
     .990084578871D+00  .299125000000D+03  .776037993669D+00 -.793854495798D-08
     .254653464482D-09  .100000000000D+01  .190400000000D+04  .000000000000D+00
     .340000000000D+01  .000000000000D+00 -.125728547573D-07  .380000000000D+02
     .295206000000D+06  .400000000000D+01
14 16  7  6 12  0  0.0 -.231368467212D-04 -.204636307899D-11  .000000000000D+00
     .810000000000D+02 -.196562500000D+02  .495092051143D-08 -.102315350412D+01
    -.758096575737D-06  .884593150113D-02  .599958002567D-05  .515402313423D+04
     .302400000000D+06 -.745058059692D-08 -.746465817138D+00  .197440385818D-06
     .963543877276D+00  .266593750000D+03 -.196202362220D+01 -.822034241026D-08
    -.267868300647D-09  .100000000000D+01  .190400000000D+04  .000000000000D+00
     .240000000000D+01  .000000000000D+00 -.931322574615D-08  .810000000000D+02
     .295206000000D+06  .400000000000D+01
16 16  7  6 12  0  0.0 -.641401857138D-05  .227373675443D-11  .000000000000D+00
     .150000000000D+02  .991875000000D+02  .408731311014D-08  .102186851053D+00
     .522658228874D-05  .868510012515D-02  .491738319397D-05  .515378412247D+04
     .302400000000D+06  .298023223877D-07  .134301974779D+01  .465661287308D-07
     .990581729637D+00  .295906250000D+03  .397343496963D+00 -.810176604250D-08
     .161792453591D-09  .100000000000D+01  .190400000000D+04  .000000000000D+00
     .240000000000D+01  .000000000000D+00 -.107102096081D-07  .150000000000D+02
     .295206000000D+06  .400000000000D+01
17 16  7  6 12  0  0.0 -.203961040825D-03  .000000000000D+00  .000000000000D+00
     .790000000000D+02 -.816250000000D+02  .447304346307D-08 -.738644449975D+00
    -.417977571487D-05  .110017125262D-01  .255368649960D-05  .515371304703D+04
     .302400000000D+06 -.800937414169D-07  .236458615695D+01  .130385160446D-06
     .976837059836D+00  .339187500000D+03 -.192593947065D+01 -.846178103857D-08
    -.360729311538D-09  .100000000000D+01  .190400000000D+04  .000000000000D+00
     .240000000000D+01  .000000000000D+00 -.107102096081D-07  .790000000000D+02
     .295206000000D+06  .400000000000D+01
